[{"OBJECT_NAME":"STARLINK-1735","OBJECT_ID":"2020-070AK","EPOCH":"2026-03-10T00:00:02.999808","MEAN_MOTION":15.6184928,"ECCENTRICITY":0.0004168,"INCLINATION":53.0421,"RA_OF_ASC_NODE":117.3863,"ARG_OF_PERICENTER":189.2532,"MEAN_ANOMALY":133.1933,"EPHEMERIS_TYPE":0,"CLASSIFICATION_TYPE":"U","NORAD_CAT_ID":46565,"ELEMENT_SET_NO":999,"REV_AT_EPOCH":589,"BSTAR":0.0023467321,"MEAN_MOTION_DOT":0.00212485,"MEAN_MOTION_DDOT":0},{"OBJECT_NAME":"SCOUT X-1 DEB","OBJECT_ID":"1961-004F","EPOCH":"2026-03-01T00:08:32.328672","MEAN_MOTION":15.46428893,"ECCENTRICITY":0.00336749,"INCLINATION":39.0085,"RA_OF_ASC_NODE":274.0703,"ARG_OF_PERICENTER":55.969,"MEAN_ANOMALY":304.4293,"EPHEMERIS_TYPE":0,"CLASSIFICATION_TYPE":"U","NORAD_CAT_ID":3927,"ELEMENT_SET_NO":999,"REV_AT_EPOCH":11451,"BSTAR":0.009395543,"MEAN_MOTION_DOT":0.00520474,"MEAN_MOTION_DDOT":0}]
